<?xml version="1.0" encoding="US-ASCII" standalone="yes"?>
<q:quakeml xmlns:q="http://quakeml.org/xmlns/quakeml/1.2" xmlns="http://quakeml.org/xmlns/bed/1.2" xmlns:ingv="http://webservices.ingv.it/fdsnws/event/1">
  <eventParameters publicID="smi:webservices.ingv.it/fdsnws/event/1/query">
    <event publicID="smi:webservices.ingv.it/fdsnws/event/1/query?eventId=26031941">
      <type>earthquake</type>
      <description>
        <type>region name</type>
        <text>2 km SE Muscoline (BS)</text>
      </description>
      <preferredMagnitudeID>smi:webservices.ingv.it/fdsnws/event/1/query?magnitudeId=92750691</preferredMagnitudeID>
      <preferredOriginID>smi:webservices.ingv.it/fdsnws/event/1/query?originId=86811231</preferredOriginID>
      <creationInfo>
        <agencyID>INGV</agencyID>
        <author>hew10_mole#MOD_EQASSEMBLE</author>
        <creationTime>2021-02-03T15:27:15</creationTime>
        <ingv:id_locator>293536</ingv:id_locator>
      </creationInfo>
      <origin publicID="smi:webservices.ingv.it/fdsnws/event/1/query?originId=86811181">
        <evaluationMode>automatic</evaluationMode>
        <type>hypocenter</type>
        <time>
          <value>2021-02-03T15:26:52.110000</value>
        </time>
        <latitude>
          <value>45.740833</value>
        </latitude>
        <longitude>
          <value>10.445666</value>
        </longitude>
        <depth>
          <value>10</value>
        </depth>
        <depthType>from location</depthType>
        <originUncertainty>
          <preferredDescription>uncertainty ellipse</preferredDescription>
          <horizontalUncertainty>2380.0</horizontalUncertainty>
          <minHorizontalUncertainty>2130</minHorizontalUncertainty>
          <maxHorizontalUncertainty>2399</maxHorizontalUncertainty>
          <azimuthMaxHorizontalUncertainty>344</azimuthMaxHorizontalUncertainty>
          <confidenceLevel>68</confidenceLevel>
        </originUncertainty>
        <quality>
          <azimuthalGap>117</azimuthalGap>
          <associatedPhaseCount>26</associatedPhaseCount>
          <usedPhaseCount>26</usedPhaseCount>
          <standardError>1.22</standardError>
          <minimumDistance>0.10612</minimumDistance>
          <maximumDistance>5.12434</maximumDistance>
          <associatedStationCount>25</associatedStationCount>
          <usedStationCount>25</usedStationCount>
        </quality>
        <evaluationStatus>preliminary</evaluationStatus>
        <methodID>smi:webservices.ingv.it/fdsnws/event/1/query?methodId=3</methodID>
        <earthModelID>smi:webservices.ingv.it/fdsnws/event/1/query?earthModelId=9</earthModelID>
        <creationInfo>
          <agencyID>INGV</agencyID>
          <author>hew10_mole#MOD_EQASSEMBLE</author>
          <version>2</version>
          <creationTime>2021-02-03T15:29:37</creationTime>
        </creationInfo>
        <arrival publicID="smi:webservices.ingv.it/fdsnws/event/1/query?arrivalId=1669366751">
          <phase>Sg</phase>
          <azimuth>145</azimuth>
          <distance>2.9525</distance>
          <timeResidual>3.45</timeResidual>
          <timeWeight>0.31</timeWeight>
          <pickID>smi:webservices.ingv.it/fdsnws/event/1/query?pickId=506130701</pickID>
          <earthModelID>smi:webservices.ingv.it/fdsnws/event/1/query?earthModelId=9</earthModelID>
          <takeoffAngle>
            <value>38</value>
          </takeoffAngle>
          <creationInfo>
            <agencyID>INGV </agencyID>
            <author>hew10_mole#MOD_EQASSEMBLE</author>
            <creationTime>2021-02-03T15:29:37</creationTime>
          </creationInfo>
        </arrival>
        <arrival publicID="smi:webservices.ingv.it/fdsnws/event/1/query?arrivalId=1669366761">
          <phase>Pg</phase>
          <azimuth>146</azimuth>
          <distance>5.1243</distance>
          <timeResidual>7.2</timeResidual>
          <timeWeight>0</timeWeight>
          <pickID>smi:webservices.ingv.it/fdsnws/event/1/query?pickId=506130711</pickID>
          <earthModelID>smi:webservices.ingv.it/fdsnws/event/1/query?earthModelId=9</earthModelID>
          <takeoffAngle>
            <value>38</value>
          </takeoffAngle>
          <creationInfo>
            <agencyID>INGV </agencyID>
            <author>hew10_mole#MOD_EQASSEMBLE</author>
            <creationTime>2021-02-03T15:29:37</creationTime>
          </creationInfo>
        </arrival>
        <arrival publicID="smi:webservices.ingv.it/fdsnws/event/1/query?arrivalId=1669366741">
          <phase>Sn</phase>
          <azimuth>146</azimuth>
          <distance>2.5963</distance>
          <timeResidual>-6.29</timeResidual>
          <timeWeight>0</timeWeight>
          <pickID>smi:webservices.ingv.it/fdsnws/event/1/query?pickId=506130691</pickID>
          <earthModelID>smi:webservices.ingv.it/fdsnws/event/1/query?earthModelId=9</earthModelID>
          <takeoffAngle>
            <value>38</value>
          </takeoffAngle>
          <creationInfo>
            <agencyID>INGV </agencyID>
            <author>hew10_mole#MOD_EQASSEMBLE</author>
            <creationTime>2021-02-03T15:29:37</creationTime>
          </creationInfo>
        </arrival>
        <arrival publicID="smi:webservices.ingv.it/fdsnws/event/1/query?arrivalId=1669366731">
          <phase>Sg</phase>
          <azimuth>140</azimuth>
          <distance>1.8607</distance>
          <timeResidual>-3.5</timeResidual>
          <timeWeight>0.78</timeWeight>
          <pickID>smi:webservices.ingv.it/fdsnws/event/1/query?pickId=506130681</pickID>
          <earthModelID>smi:webservices.ingv.it/fdsnws/event/1/query?earthModelId=9</earthModelID>
          <takeoffAngle>
            <value>38</value>
          </takeoffAngle>
          <creationInfo>
            <agencyID>INGV </agencyID>
            <author>hew10_mole#MOD_EQASSEMBLE</author>
            <creationTime>2021-02-03T15:29:37</creationTime>
          </creationInfo>
        </arrival>
        <arrival publicID="smi:webservices.ingv.it/fdsnws/event/1/query?arrivalId=1669366721">
          <phase>Sn</phase>
          <azimuth>70</azimuth>
          <distance>1.6610</distance>
          <timeResidual>0.39</timeResidual>
          <timeWeight>1.19</timeWeight>
          <pickID>smi:webservices.ingv.it/fdsnws/event/1/query?pickId=506130671</pickID>
          <earthModelID>smi:webservices.ingv.it/fdsnws/event/1/query?earthModelId=9</earthModelID>
          <takeoffAngle>
            <value>38</value>
          </takeoffAngle>
          <creationInfo>
            <agencyID>INGV </agencyID>
            <author>hew10_mole#MOD_EQASSEMBLE</author>
            <creationTime>2021-02-03T15:29:37</creationTime>
          </creationInfo>
        </arrival>
        <arrival publicID="smi:webservices.ingv.it/fdsnws/event/1/query?arrivalId=1669366671">
          <phase>S</phase>
          <azimuth>36</azimuth>
          <distance>0.9164</distance>
          <timeResidual>-0.9</timeResidual>
          <timeWeight>0.62</timeWeight>
          <pickID>smi:webservices.ingv.it/fdsnws/event/1/query?pickId=506130621</pickID>
          <earthModelID>smi:webservices.ingv.it/fdsnws/event/1/query?earthModelId=9</earthModelID>
          <takeoffAngle>
            <value>56</value>
          </takeoffAngle>
          <creationInfo>
            <agencyID>INGV </agencyID>
            <author>hew10_mole#MOD_EQASSEMBLE</author>
            <creationTime>2021-02-03T15:29:37</creationTime>
          </creationInfo>
        </arrival>
        <arrival publicID="smi:webservices.ingv.it/fdsnws/event/1/query?arrivalId=1669366711">
          <phase>P</phase>
          <azimuth>29</azimuth>
          <distance>1.3625</distance>
          <timeResidual>0.79</timeResidual>
          <timeWeight>1.23</timeWeight>
          <pickID>smi:webservices.ingv.it/fdsnws/event/1/query?pickId=506130661</pickID>
          <earthModelID>smi:webservices.ingv.it/fdsnws/event/1/query?earthModelId=9</earthModelID>
          <takeoffAngle>
            <value>38</value>
          </takeoffAngle>
          <creationInfo>
            <agencyID>INGV </agencyID>
            <author>hew10_mole#MOD_EQASSEMBLE</author>
            <creationTime>2021-02-03T15:29:37</creationTime>
          </creationInfo>
        </arrival>
        <arrival publicID="smi:webservices.ingv.it/fdsnws/event/1/query?arrivalId=1669366701">
          <phase>P</phase>
          <azimuth>315</azimuth>
          <distance>1.0576</distance>
          <timeResidual>0.37</timeResidual>
          <timeWeight>0.62</timeWeight>
          <pickID>smi:webservices.ingv.it/fdsnws/event/1/query?pickId=506130651</pickID>
          <earthModelID>smi:webservices.ingv.it/fdsnws/event/1/query?earthModelId=9</earthModelID>
          <takeoffAngle>
            <value>56</value>
          </takeoffAngle>
          <creationInfo>
            <agencyID>INGV </agencyID>
            <author>hew10_mole#MOD_EQASSEMBLE</author>
            <creationTime>2021-02-03T15:29:37</creationTime>
          </creationInfo>
        </arrival>
        <arrival publicID="smi:webservices.ingv.it/fdsnws/event/1/query?arrivalId=1669366691">
          <phase>P</phase>
          <azimuth>41</azimuth>
          <distance>0.9704</distance>
          <timeResidual>-0.44</timeResidual>
          <timeWeight>1.25</timeWeight>
          <pickID>smi:webservices.ingv.it/fdsnws/event/1/query?pickId=506130641</pickID>
          <earthModelID>smi:webservices.ingv.it/fdsnws/event/1/query?earthModelId=9</earthModelID>
          <takeoffAngle>
            <value>56</value>
          </takeoffAngle>
          <creationInfo>
            <agencyID>INGV </agencyID>
            <author>hew10_mole#MOD_EQASSEMBLE</author>
            <creationTime>2021-02-03T15:29:37</creationTime>
          </creationInfo>
        </arrival>
        <arrival publicID="smi:webservices.ingv.it/fdsnws/event/1/query?arrivalId=1669366681">
          <phase>P</phase>
          <azimuth>55</azimuth>
          <distance>0.9443</distance>
          <timeResidual>-1.11</timeResidual>
          <timeWeight>1.25</timeWeight>
          <pickID>smi:webservices.ingv.it/fdsnws/event/1/query?pickId=506130631</pickID>
          <earthModelID>smi:webservices.ingv.it/fdsnws/event/1/query?earthModelId=9</earthModelID>
          <takeoffAngle>
            <value>56</value>
          </takeoffAngle>
          <creationInfo>
            <agencyID>INGV </agencyID>
            <author>hew10_mole#MOD_EQASSEMBLE</author>
            <creationTime>2021-02-03T15:29:37</creationTime>
          </creationInfo>
        </arrival>
        <arrival publicID="smi:webservices.ingv.it/fdsnws/event/1/query?arrivalId=1669366661">
          <phase>P</phase>
          <azimuth>36</azimuth>
          <distance>0.9164</distance>
          <timeResidual>-0.32</timeResidual>
          <timeWeight>0.62</timeWeight>
          <pickID>smi:webservices.ingv.it/fdsnws/event/1/query?pickId=506130611</pickID>
          <earthModelID>smi:webservices.ingv.it/fdsnws/event/1/query?earthModelId=9</earthModelID>
          <takeoffAngle>
            <value>56</value>
          </takeoffAngle>
          <creationInfo>
            <agencyID>INGV </agencyID>
            <author>hew10_mole#MOD_EQASSEMBLE</author>
            <creationTime>2021-02-03T15:29:37</creationTime>
          </creationInfo>
        </arrival>
        <arrival publicID="smi:webservices.ingv.it/fdsnws/event/1/query?arrivalId=1669366641">
          <phase>P</phase>
          <azimuth>4</azimuth>
          <distance>0.8777</distance>
          <timeResidual>0.34</timeResidual>
          <timeWeight>0.62</timeWeight>
          <pickID>smi:webservices.ingv.it/fdsnws/event/1/query?pickId=506130591</pickID>
          <earthModelID>smi:webservices.ingv.it/fdsnws/event/1/query?earthModelId=9</earthModelID>
          <takeoffAngle>
            <value>56</value>
          </takeoffAngle>
          <creationInfo>
            <agencyID>INGV </agencyID>
            <author>hew10_mole#MOD_EQASSEMBLE</author>
            <creationTime>2021-02-03T15:29:37</creationTime>
          </creationInfo>
        </arrival>
        <arrival publicID="smi:webservices.ingv.it/fdsnws/event/1/query?arrivalId=1669366621">
          <phase>P</phase>
          <azimuth>337</azimuth>
          <distance>0.7338</distance>
          <timeResidual>1.15</timeResidual>
          <timeWeight>1.87</timeWeight>
          <pickID>smi:webservices.ingv.it/fdsnws/event/1/query?pickId=506130571</pickID>
          <earthModelID>smi:webservices.ingv.it/fdsnws/event/1/query?earthModelId=9</earthModelID>
          <takeoffAngle>
            <value>56</value>
          </takeoffAngle>
          <creationInfo>
            <agencyID>INGV </agencyID>
            <author>hew10_mole#MOD_EQASSEMBLE</author>
            <creationTime>2021-02-03T15:29:37</creationTime>
          </creationInfo>
        </arrival>
        <arrival publicID="smi:webservices.ingv.it/fdsnws/event/1/query?arrivalId=1669366651">
          <phase>P</phase>
          <azimuth>69</azimuth>
          <distance>0.8948</distance>
          <timeResidual>-1.76</timeResidual>
          <timeWeight>1.25</timeWeight>
          <pickID>smi:webservices.ingv.it/fdsnws/event/1/query?pickId=506130601</pickID>
          <earthModelID>smi:webservices.ingv.it/fdsnws/event/1/query?earthModelId=9</earthModelID>
          <takeoffAngle>
            <value>56</value>
          </takeoffAngle>
          <creationInfo>
            <agencyID>INGV </agencyID>
            <author>hew10_mole#MOD_EQASSEMBLE</author>
            <creationTime>2021-02-03T15:29:37</creationTime>
          </creationInfo>
        </arrival>
        <arrival publicID="smi:webservices.ingv.it/fdsnws/event/1/query?arrivalId=1669366631">
          <phase>P</phase>
          <azimuth>357</azimuth>
          <distance>0.7365</distance>
          <timeResidual>0.47</timeResidual>
          <timeWeight>1.25</timeWeight>
          <pickID>smi:webservices.ingv.it/fdsnws/event/1/query?pickId=506130581</pickID>
          <earthModelID>smi:webservices.ingv.it/fdsnws/event/1/query?earthModelId=9</earthModelID>
          <takeoffAngle>
            <value>56</value>
          </takeoffAngle>
          <creationInfo>
            <agencyID>INGV </agencyID>
            <author>hew10_mole#MOD_EQASSEMBLE</author>
            <creationTime>2021-02-03T15:29:37</creationTime>
          </creationInfo>
        </arrival>
        <arrival publicID="smi:webservices.ingv.it/fdsnws/event/1/query?arrivalId=1669366611">
          <phase>P</phase>
          <azimuth>14</azimuth>
          <distance>0.7060</distance>
          <timeResidual>-0.11</timeResidual>
          <timeWeight>1.25</timeWeight>
          <pickID>smi:webservices.ingv.it/fdsnws/event/1/query?pickId=506130561</pickID>
          <earthModelID>smi:webservices.ingv.it/fdsnws/event/1/query?earthModelId=9</earthModelID>
          <takeoffAngle>
            <value>56</value>
          </takeoffAngle>
          <creationInfo>
            <agencyID>INGV </agencyID>
            <author>hew10_mole#MOD_EQASSEMBLE</author>
            <creationTime>2021-02-03T15:29:37</creationTime>
          </creationInfo>
        </arrival>
        <arrival publicID="smi:webservices.ingv.it/fdsnws/event/1/query?arrivalId=1669366601">
          <phase>P</phase>
          <azimuth>63</azimuth>
          <distance>0.6934</distance>
          <timeResidual>-0.97</timeResidual>
          <timeWeight>0.62</timeWeight>
          <pickID>smi:webservices.ingv.it/fdsnws/event/1/query?pickId=506130551</pickID>
          <earthModelID>smi:webservices.ingv.it/fdsnws/event/1/query?earthModelId=9</earthModelID>
          <takeoffAngle>
            <value>56</value>
          </takeoffAngle>
          <creationInfo>
            <agencyID>INGV </agencyID>
            <author>hew10_mole#MOD_EQASSEMBLE</author>
            <creationTime>2021-02-03T15:29:37</creationTime>
          </creationInfo>
        </arrival>
        <arrival publicID="smi:webservices.ingv.it/fdsnws/event/1/query?arrivalId=1669366571">
          <phase>P</phase>
          <azimuth>46</azimuth>
          <distance>0.4955</distance>
          <timeResidual>-0.07</timeResidual>
          <timeWeight>0.62</timeWeight>
          <pickID>smi:webservices.ingv.it/fdsnws/event/1/query?pickId=506130071</pickID>
          <earthModelID>smi:webservices.ingv.it/fdsnws/event/1/query?earthModelId=9</earthModelID>
          <takeoffAngle>
            <value>90</value>
          </takeoffAngle>
          <creationInfo>
            <agencyID>INGV </agencyID>
            <author>hew10_mole#MOD_EQASSEMBLE</author>
            <creationTime>2021-02-03T15:29:37</creationTime>
          </creationInfo>
        </arrival>
        <arrival publicID="smi:webservices.ingv.it/fdsnws/event/1/query?arrivalId=1669366581">
          <phase>P</phase>
          <azimuth>274</azimuth>
          <distance>0.5117</distance>
          <timeResidual>-1.46</timeResidual>
          <timeWeight>1.25</timeWeight>
          <pickID>smi:webservices.ingv.it/fdsnws/event/1/query?pickId=506130051</pickID>
          <earthModelID>smi:webservices.ingv.it/fdsnws/event/1/query?earthModelId=9</earthModelID>
          <takeoffAngle>
            <value>90</value>
          </takeoffAngle>
          <creationInfo>
            <agencyID>INGV </agencyID>
            <author>hew10_mole#MOD_EQASSEMBLE</author>
            <creationTime>2021-02-03T15:29:37</creationTime>
          </creationInfo>
        </arrival>
        <arrival publicID="smi:webservices.ingv.it/fdsnws/event/1/query?arrivalId=1669366591">
          <phase>P</phase>
          <azimuth>74</azimuth>
          <distance>0.5378</distance>
          <timeResidual>-2.19</timeResidual>
          <timeWeight>0.62</timeWeight>
          <pickID>smi:webservices.ingv.it/fdsnws/event/1/query?pickId=506130061</pickID>
          <earthModelID>smi:webservices.ingv.it/fdsnws/event/1/query?earthModelId=9</earthModelID>
          <takeoffAngle>
            <value>90</value>
          </takeoffAngle>
          <creationInfo>
            <agencyID>INGV </agencyID>
            <author>hew10_mole#MOD_EQASSEMBLE</author>
            <creationTime>2021-02-03T15:29:37</creationTime>
          </creationInfo>
        </arrival>
        <arrival publicID="smi:webservices.ingv.it/fdsnws/event/1/query?arrivalId=1669366561">
          <phase>P</phase>
          <azimuth>57</azimuth>
          <distance>0.4110</distance>
          <timeResidual>-0.47</timeResidual>
          <timeWeight>0.62</timeWeight>
          <pickID>smi:webservices.ingv.it/fdsnws/event/1/query?pickId=506130541</pickID>
          <earthModelID>smi:webservices.ingv.it/fdsnws/event/1/query?earthModelId=9</earthModelID>
          <takeoffAngle>
            <value>90</value>
          </takeoffAngle>
          <creationInfo>
            <agencyID>INGV </agencyID>
            <author>hew10_mole#MOD_EQASSEMBLE</author>
            <creationTime>2021-02-03T15:29:37</creationTime>
          </creationInfo>
        </arrival>
        <arrival publicID="smi:webservices.ingv.it/fdsnws/event/1/query?arrivalId=1669366551">
          <phase>P</phase>
          <azimuth>74</azimuth>
          <distance>0.3265</distance>
          <timeResidual>-0.68</timeResidual>
          <timeWeight>1.25</timeWeight>
          <pickID>smi:webservices.ingv.it/fdsnws/event/1/query?pickId=506130031</pickID>
          <earthModelID>smi:webservices.ingv.it/fdsnws/event/1/query?earthModelId=9</earthModelID>
          <takeoffAngle>
            <value>90</value>
          </takeoffAngle>
          <creationInfo>
            <agencyID>INGV </agencyID>
            <author>hew10_mole#MOD_EQASSEMBLE</author>
            <creationTime>2021-02-03T15:29:37</creationTime>
          </creationInfo>
        </arrival>
        <arrival publicID="smi:webservices.ingv.it/fdsnws/event/1/query?arrivalId=1669366531">
          <phase>P</phase>
          <azimuth>27</azimuth>
